******** Week 938 almanac for PRN-42 ********
ID:                         42
Health:                     000
Eccentricity:               1.3179779053E-003
Time of Applicability(s):  516096.0000
Orbital Inclination(rad):   0.0317581960
Rate of Right Ascen(r/s):  -6.8574285000E-009
SQRT(A)  (m 1/2):           5282.578613
Right Ascen at Week(rad):   9.4210990000E-003
Argument of Perigee(rad):  -1.233654614
Mean Anom(rad):             2.5447033520E+000
Af0(s):                    -4.7302250000E-004
Af1(s/s):                   7.2759600000E-012
week:                        938

******** Week 938 almanac for PRN-43 ********
ID:                         43
Health:                     000
Eccentricity:               4.9018859863E-004
Time of Applicability(s):  516096.0000
Orbital Inclination(rad):   0.0114329506
Rate of Right Ascen(r/s):  -6.8688575400E-009
SQRT(A)  (m 1/2):           5282.570801
Right Ascen at Week(rad):  -2.1122398630E+000
Argument of Perigee(rad):   0.379300344
Mean Anom(rad):             2.2723386210E+000
Af0(s):                     5.4359440000E-005
Af1(s/s):                   0.0000000000E+000
week:                        938

******** Week 938 almanac for PRN-44 ********
ID:                         44
Health:                     000
Eccentricity:               7.0190429688E-004
Time of Applicability(s):  512000.0000
Orbital Inclination(rad):   0.0118943432
Rate of Right Ascen(r/s):  -6.8688575400E-009
SQRT(A)  (m 1/2):           5282.575684
Right Ascen at Week(rad):  -2.1118563680E+000
Argument of Perigee(rad):   0.435311240
Mean Anom(rad):            -3.0971015930E+000
Af0(s):                     3.3760070000E-004
Af1(s/s):                   1.0913900000E-011
week:                        938

******** Week 938 almanac for PRN-45 ********
ID:                         45
Health:                     000
Eccentricity:               6.3610076904E-004
Time of Applicability(s):  512000.0000
Orbital Inclination(rad):   0.0076818882
Rate of Right Ascen(r/s):  -6.9145737300E-009
SQRT(A)  (m 1/2):           5282.563965
Right Ascen at Week(rad):   2.1091565470E+000
Argument of Perigee(rad):   0.515588694
Mean Anom(rad):            -2.3809546500E-001
Af0(s):                    -5.9127810000E-005
Af1(s/s):                  -3.6379800000E-012
week:                        938

******** Week 938 almanac for PRN-46 ********
ID:                         46
Health:                     000
Eccentricity:               9.5272064209E-004
Time of Applicability(s):  512000.0000
Orbital Inclination(rad):   0.0077118487
Rate of Right Ascen(r/s):  -6.9145737300E-009
SQRT(A)  (m 1/2):           5282.566895
Right Ascen at Week(rad):   2.1096943390E+000
Argument of Perigee(rad):   0.420340696
Mean Anom(rad):             1.3925291090E+000
Af0(s):                    -1.1157990000E-004
Af1(s/s):                  -3.6379800000E-012
week:                        938

******** Week 938 almanac for PRN-05 ********
ID:                         05
Health:                     000
Eccentricity:               9.3030929565E-004
Time of Applicability(s):  516096.0000
Orbital Inclination(rad):   0.0350898105
Rate of Right Ascen(r/s):   1.4743471300E-009
SQRT(A)  (m 1/2):           6493.469727
Right Ascen at Week(rad):  -3.9315935100E-001
Argument of Perigee(rad):  -2.555749811
Mean Anom(rad):            -2.3747030020E+000
Af0(s):                     2.0408630000E-004
Af1(s/s):                  -6.1845600000E-011
week:                        938

******** Week 938 almanac for PRN-56 ********
ID:                         56
Health:                     000
Eccentricity:               4.6024322510E-003
Time of Applicability(s):   94208.0000
Orbital Inclination(rad):  -0.0281509443
Rate of Right Ascen(r/s):  -2.7429714000E-009
SQRT(A)  (m 1/2):           6493.225586
Right Ascen at Week(rad):  -2.6700501050E+000
Argument of Perigee(rad):  -2.960955930
Mean Anom(rad):             1.6172280830E+000
Af0(s):                     4.1580200000E-004
Af1(s/s):                   3.6379800000E-012
week:                        938

******** Week 938 almanac for PRN-57 ********
ID:                         57
Health:                     000
Eccentricity:               4.6539306641E-004
Time of Applicability(s):   94208.0000
Orbital Inclination(rad):   0.0337775379
Rate of Right Ascen(r/s):  -6.7545670700E-009
SQRT(A)  (m 1/2):           5282.583984
Right Ascen at Week(rad):  -1.1289896370E+000
Argument of Perigee(rad):  -1.011672688
Mean Anom(rad):            -1.3079508200E-001
Af0(s):                     4.1580200000E-004
Af1(s/s):                   3.6379800000E-012
week:                        938

******** Week 938 almanac for PRN-58 ********
ID:                         58
Health:                     000
Eccentricity:               6.9904327393E-004
Time of Applicability(s):   98304.0000
Orbital Inclination(rad):   0.0324652653
Rate of Right Ascen(r/s):  -7.0745804000E-009
SQRT(A)  (m 1/2):           5282.567871
Right Ascen at Week(rad):   2.0974157510E+000
Argument of Perigee(rad):   0.915884277
Mean Anom(rad):             7.9508179200E-001
Af0(s):                    -9.7656250000E-004
Af1(s/s):                  -1.8917500000E-010
week:                        938

******** Week 938 almanac for PRN-59 ********
ID:                         59
Health:                     000
Eccentricity:               1.0919570923E-004
Time of Applicability(s):  512000.0000
Orbital Inclination(rad):   0.0312368822
Rate of Right Ascen(r/s):   2.8572618700E-010
SQRT(A)  (m 1/2):           6493.462402
Right Ascen at Week(rad):   4.2248287700E-001
Argument of Perigee(rad):   0.058982610
Mean Anom(rad):             1.6002378220E+000
Af0(s):                    -9.5367430000E-007
Af1(s/s):                   0.0000000000E+000
week:                        938

******** Week 938 almanac for PRN-06 ********
ID:                         06
Health:                     000
Eccentricity:               3.8070678711E-003
Time of Applicability(s):  516096.0000
Orbital Inclination(rad):   0.0034993937
Rate of Right Ascen(r/s):  -1.7372152200E-009
SQRT(A)  (m 1/2):           6493.310547
Right Ascen at Week(rad):   1.3761073500E+000
Argument of Perigee(rad):  -2.986647486
Mean Anom(rad):            -2.8397883000E+000
Af0(s):                     1.9073490000E-005
Af1(s/s):                   2.1827900000E-011
week:                        938

******** Week 938 almanac for PRN-60 ********
ID:                         60
Health:                     000
Eccentricity:               3.3092498779E-004
Time of Applicability(s):  512000.0000
Orbital Inclination(rad):   0.0376184820
Rate of Right Ascen(r/s):   2.1486609300E-009
SQRT(A)  (m 1/2):           6493.477051
Right Ascen at Week(rad):  -1.2203060600E+000
Argument of Perigee(rad):  -1.909609839
Mean Anom(rad):            -2.1198846750E+000
Af0(s):                     0.0000000000E+000
Af1(s/s):                   0.0000000000E+000
week:                        938

******** Week 938 almanac for PRN-61 ********
ID:                         61
Health:                     000
Eccentricity:               9.8991394043E-004
Time of Applicability(s):  512000.0000
Orbital Inclination(rad):   0.0105581021
Rate of Right Ascen(r/s):   1.6343537900E-009
SQRT(A)  (m 1/2):           6493.579590
Right Ascen at Week(rad):  -1.3989459120E+000
Argument of Perigee(rad):  -1.000750191
Mean Anom(rad):            -2.3177704440E+000
Af0(s):                     9.5367430000E-007
Af1(s/s):                   0.0000000000E+000
week:                        938

******** Week 938 almanac for PRN-62 ********
ID:                         62
Health:                     000
Eccentricity:               3.1805038452E-004
Time of Applicability(s):  512000.0000
Orbital Inclination(rad):   0.0443656006
Rate of Right Ascen(r/s):  -6.8574285000E-010
SQRT(A)  (m 1/2):           6493.362793
Right Ascen at Week(rad):  -2.8523893380E+000
Argument of Perigee(rad):  -2.199176801
Mean Anom(rad):             1.1988314520E+000
Af0(s):                     0.0000000000E+000
Af1(s/s):                   0.0000000000E+000
week:                        938

******** Week 938 almanac for PRN-07 ********
ID:                         07
Health:                     000
Eccentricity:               2.7904510498E-003
Time of Applicability(s):  516096.0000
Orbital Inclination(rad):  -0.0832963552
Rate of Right Ascen(r/s):  -2.1943771200E-009
SQRT(A)  (m 1/2):           6493.939453
Right Ascen at Week(rad):  -2.9558660050E+000
Argument of Perigee(rad):  -2.620679967
Mean Anom(rad):             1.0408789930E+000
Af0(s):                    -5.5408480000E-004
Af1(s/s):                  -6.1845600000E-011
week:                        938

******** Week 938 almanac for PRN-08 ********
ID:                         08
Health:                     000
Eccentricity:               2.9416084290E-003
Time of Applicability(s):  516096.0000
Orbital Inclination(rad):   0.1240307357
Rate of Right Ascen(r/s):  -2.3658128300E-009
SQRT(A)  (m 1/2):           6492.778320
Right Ascen at Week(rad):  -7.5844564200E-001
Argument of Perigee(rad):  -3.137001572
Mean Anom(rad):            -6.3232028800E-001
Af0(s):                     1.4781950000E-004
Af1(s/s):                  -2.5465900000E-011
week:                        938

******** Week 938 almanac for PRN-09 ********
ID:                         09
Health:                     000
Eccentricity:               1.1494636536E-002
Time of Applicability(s):  516096.0000
Orbital Inclination(rad):   0.0088263816
Rate of Right Ascen(r/s):  -1.7257861700E-009
SQRT(A)  (m 1/2):           6492.922852
Right Ascen at Week(rad):   1.4211500590E+000
Argument of Perigee(rad):  -2.340299663
Mean Anom(rad):             2.4698011970E+000
Af0(s):                    -2.8324130000E-004
Af1(s/s):                  -5.0931700000E-011
week:                        938

